[{"OBJECT_NAME":"STARLINK-30801","OBJECT_ID":"2023-167K","EPOCH":"2026-03-09T04:30:36.059904","MEAN_MOTION":15.27573765,"ECCENTRICITY":0.00021386,"INCLINATION":42.9984,"RA_OF_ASC_NODE":146.6323,"ARG_OF_PERICENTER":288.9169,"MEAN_ANOMALY":71.145,"EPHEMERIS_TYPE":0,"CLASSIFICATION_TYPE":"U","NORAD_CAT_ID":58184,"ELEMENT_SET_NO":999,"REV_AT_EPOCH":13090,"BSTAR":1.1155226e-5,"MEAN_MOTION_DOT":4.5e-7,"MEAN_MOTION_DDOT":0},{"OBJECT_NAME":"FENGYUN 1C DEB","OBJECT_ID":"1999-025CMP","EPOCH":"2026-03-08T08:37:00.789888","MEAN_MOTION":14.96815474,"ECCENTRICITY":0.01497126,"INCLINATION":98.9176,"RA_OF_ASC_NODE":115.7276,"ARG_OF_PERICENTER":148.4975,"MEAN_ANOMALY":212.5316,"EPHEMERIS_TYPE":0,"CLASSIFICATION_TYPE":"U","NORAD_CAT_ID":31938,"ELEMENT_SET_NO":999,"REV_AT_EPOCH":409,"BSTAR":0.00073670691,"MEAN_MOTION_DOT":0.00010536,"MEAN_MOTION_DDOT":0}]
